{"type": "FeatureCollection", "features": [ {"type": "Feature", "properties": {"norad_id": 34570, "name": "COSMOS 2251 DEB", "group": "cosmos-2251-debris", "lat": -47.486420670781484, "lon": -153.04997645547192, "alt_km": 1029.414016860348, "timestamp": "2025-12-08T17:43:05.332440+00:00", "meta": {"OBJECT_NAME": "COSMOS 2251 DEB", "OBJECT_ID": "1993-036VG", "EPOCH": "2025-12-08T03:13:50.965824", "MEAN_MOTION": 13.99808134, "ECCENTRICITY": 0.01902354, "INCLINATION": 73.9576, "RA_OF_ASC_NODE": 226.2908, "ARG_OF_PERICENTER": 109.816, "MEAN_ANOMALY": 40.2324, "EPHEMERIS_TYPE": 0, "CLASSIFICATION_TYPE": "U", "NORAD_CAT_ID": 34570, "ELEMENT_SET_NO": 999, "REV_AT_EPOCH": 85536, "BSTAR": 0.00067376474, "MEAN_MOTION_DOT": 1.132e-05, "MEAN_MOTION_DDOT": 0}, "tle": {"line1": "1 34570U 93036VG  25342.13461766  .00001132  00000+0  67376-3 0  9998", "line2": "2 34570  73.9576 226.2908 0190235 109.8160  40.2324 13.99808134855360"}}, "geometry": {"type": "Point", "coordinates": [-153.04997645547192, -47.486420670781484]}}, {"type": "Feature", "properties": {"norad_id": 34571, "name": "COSMOS 2251 DEB", "group": "cosmos-2251-debris", "lat": 3.4790473274933733, "lon": 8.933279929762167, "alt_km": 701.123306766468, "timestamp": "2025-12-08T17:43:05.332451+00:00", "meta": {"OBJECT_NAME": "COSMOS 2251 DEB", "OBJECT_ID": "1993-036VH", "EPOCH": "2025-12-08T00:19:43.274784", "MEAN_MOTION": 14.48697899, "ECCENTRICITY": 0.00665855, "INCLINATION": 74.0397, "RA_OF_ASC_NODE": 191.2872, "ARG_OF_PERICENTER": 227.3377, "MEAN_ANOMALY": 132.2161, "EPHEMERIS_TYPE": 0, "CLASSIFICATION_TYPE": "U", "NORAD_CAT_ID": 34571, "ELEMENT_SET_NO": 999, "REV_AT_EPOCH": 87225, "BSTAR": 0.0024060709, "MEAN_MOTION_DOT": 9.309e-05, "MEAN_MOTION_DDOT": 0}, "tle": {"line1": "1 34571U 93036VH  25342.01369531  .00009309  00000+0  24061-2 0  9990", "line2": "2 34571  74.0397 191.2872 0066585 227.3377 132.2161 14.48697899872258"}}, "geometry": {"type": "Point", "coordinates": [8.933279929762167, 3.4790473274933733]}}, {"type": "Feature", "properties": {"norad_id": 34572, "name": "COSMOS 2251 DEB", "group": "cosmos-2251-debris", "lat": 21.14964862513409, "lon": 129.4020761566564, "alt_km": 770.4763630807538, "timestamp": "2025-12-08T17:43:05.332462+00:00", "meta": {"OBJECT_NAME": "COSMOS 2251 DEB", "OBJECT_ID": "1993-036VJ", "EPOCH": "2025-12-07T20:40:32.380032", "MEAN_MOTION": 14.49852779, "ECCENTRICITY": 0.00634699, "INCLINATION": 74.0112, "RA_OF_ASC_NODE": 124.6816, "ARG_OF_PERICENTER": 199.438, "MEAN_ANOMALY": 288.2983, "EPHEMERIS_TYPE": 0, "CLASSIFICATION_TYPE": "U", "NORAD_CAT_ID": 34572, "ELEMENT_SET_NO": 999, "REV_AT_EPOCH": 87307, "BSTAR": 0.0050348596, "MEAN_MOTION_DOT": 0.00019977, "MEAN_MOTION_DDOT": 0}, "tle": {"line1": "1 34572U 93036VJ  25341.86148588  .00019977  00000+0  50349-2 0  9990", "line2": "2 34572  74.0112 124.6816 0063469 199.4380 288.2983 14.49852779873079"}}, "geometry": {"type": "Point", "coordinates": [129.4020761566564, 21.14964862513409]}}, {"type": "Feature", "properties": {"norad_id": 34574, "name": "COSMOS 2251 DEB", "group": "cosmos-2251-debris", "lat": -26.972941015092655, "lon": 42.52643527048395, "alt_km": 673.6842842814331, "timestamp": "2025-12-08T17:43:05.332494+00:00", "meta": {"OBJECT_NAME": "COSMOS 2251 DEB", "OBJECT_ID": "1993-036VL", "EPOCH": "2025-12-08T04:55:29.738784", "MEAN_MOTION": 14.70528289, "ECCENTRICITY": 0.00669497, "INCLINATION": 74.0698, "RA_OF_ASC_NODE": 51.9164, "ARG_OF_PERICENTER": 74.4271, "MEAN_ANOMALY": 317.5369, "EPHEMERIS_TYPE": 0, "CLASSIFICATION_TYPE": "U", "NORAD_CAT_ID": 34574, "ELEMENT_SET_NO": 999, "REV_AT_EPOCH": 88712, "BSTAR": 0.0011679697, "MEAN_MOTION_DOT": 7.315e-05, "MEAN_MOTION_DDOT": 0}, "tle": {"line1": "1 34574U 93036VL  25342.20520531  .00007315  00000+0  11680-2 0  9991", "line2": "2 34574  74.0698  51.9164 0066949  74.4271 317.5369 14.70528289887120"}}, "geometry": {"type": "Point", "coordinates": [42.52643527048395, -26.972941015092655]}}, {"type": "Feature", "properties": {"norad_id": 34576, "name": "COSMOS 2251 DEB", "group": "cosmos-2251-debris", "lat": 18.573026161958687, "lon": -39.742603632601835, "alt_km": 710.8968836357899, "timestamp": "2025-12-08T17:43:05.332511+00:00", "meta": {"OBJECT_NAME": "COSMOS 2251 DEB", "OBJECT_ID": "1993-036VN", "EPOCH": "2025-12-08T04:18:39.271680", "MEAN_MOTION": 14.55371359, "ECCENTRICITY": 0.00080807, "INCLINATION": 74.0341, "RA_OF_ASC_NODE": 146.8354, "ARG_OF_PERICENTER": 281.2664, "MEAN_ANOMALY": 193.6757, "EPHEMERIS_TYPE": 0, "CLASSIFICATION_TYPE": "U", "NORAD_CAT_ID": 34576, "ELEMENT_SET_NO": 999, "REV_AT_EPOCH": 88400, "BSTAR": 0.0011345539, "MEAN_MOTION_DOT": 4.902e-05, "MEAN_MOTION_DDOT": 0}, "tle": {"line1": "1 34576U 93036VN  25342.17962120  .00004902  00000+0  11346-2 0  9991", "line2": "2 34576  74.0341 146.8354 0008080 281.2664 193.6757 14.55371359884003"}}, "geometry": {"type": "Point", "coordinates": [-39.742603632601835, 18.573026161958687]}}, {"type": "Feature", "properties": {"norad_id": 34579, "name": "COSMOS 2251 DEB", "group": "cosmos-2251-debris", "lat": 15.35237080686342, "lon": 46.84039701463059, "alt_km": 755.7394142755029, "timestamp": "2025-12-08T17:43:05.332522+00:00", "meta": {"OBJECT_NAME": "COSMOS 2251 DEB", "OBJECT_ID": "1993-036VR", "EPOCH": "2025-12-08T02:34:52.271616", "MEAN_MOTION": 14.45287284, "ECCENTRICITY": 0.00275655, "INCLINATION": 74.0533, "RA_OF_ASC_NODE": 232.5165, "ARG_OF_PERICENTER": 301.8603, "MEAN_ANOMALY": 182.0061, "EPHEMERIS_TYPE": 0, "CLASSIFICATION_TYPE": "U", "NORAD_CAT_ID": 34579, "ELEMENT_SET_NO": 999, "REV_AT_EPOCH": 88107, "BSTAR": 0.00062727719, "MEAN_MOTION_DOT": 2.186e-05, "MEAN_MOTION_DDOT": 0}, "tle": {"line1": "1 34579U 93036VR  25342.10754944  .00002186  00000+0  62728-3 0  9993", "line2": "2 34579  74.0533 232.5165 0027565 301.8603 182.0061 14.45287284881079"}}, "geometry": {"type": "Point", "coordinates": [46.84039701463059, 15.35237080686342]}}, {"type": "Feature", "properties": {"norad_id": 34582, "name": "COSMOS 2251 DEB", "group": "cosmos-2251-debris", "lat": 46.00053836568395, "lon": 82.55665290474103, "alt_km": 749.3874143553903, "timestamp": "2025-12-08T17:43:05.332533+00:00", "meta": {"OBJECT_NAME": "COSMOS 2251 DEB", "OBJECT_ID": "1993-036VU", "EPOCH": "2025-12-08T05:28:12.415008", "MEAN_MOTION": 14.43287731, "ECCENTRICITY": 0.0047613, "INCLINATION": 74.0204, "RA_OF_ASC_NODE": 280.7667, "ARG_OF_PERICENTER": 31.9279, "MEAN_ANOMALY": 328.4747, "EPHEMERIS_TYPE": 0, "CLASSIFICATION_TYPE": "U", "NORAD_CAT_ID": 34582, "ELEMENT_SET_NO": 999, "REV_AT_EPOCH": 87882, "BSTAR": 0.0012293043, "MEAN_MOTION_DOT": 4.173e-05, "MEAN_MOTION_DDOT": 0}, "tle": {"line1": "1 34582U 93036VU  25342.22792147  .00004173  00000+0  12293-2 0  9996", "line2": "2 34582  74.0204 280.7667 0047613  31.9279 328.4747 14.43287731878827"}}, "geometry": {"type": "Point", "coordinates": [82.55665290474103, 46.00053836568395]}}, {"type": "Feature", "properties": {"norad_id": 34588, "name": "COSMOS 2251 DEB", "group": "cosmos-2251-debris", "lat": -23.402519988365704, "lon": 102.78251537303153, "alt_km": 764.666704577834, "timestamp": "2025-12-08T17:43:05.332544+00:00", "meta": {"OBJECT_NAME": "COSMOS 2251 DEB", "OBJECT_ID": "1993-036WA", "EPOCH": "2025-12-08T07:20:36.664224", "MEAN_MOTION": 14.42000423, "ECCENTRICITY": 0.00190837, "INCLINATION": 74.0442, "RA_OF_ASC_NODE": 276.4705, "ARG_OF_PERICENTER": 329.6159, "MEAN_ANOMALY": 151.7292, "EPHEMERIS_TYPE": 0, "CLASSIFICATION_TYPE": "U", "NORAD_CAT_ID": 34588, "ELEMENT_SET_NO": 999, "REV_AT_EPOCH": 87886, "BSTAR": 0.00088494464, "MEAN_MOTION_DOT": 2.884e-05, "MEAN_MOTION_DDOT": 0}, "tle": {"line1": "1 34588U 93036WA  25342.30597991  .00002884  00000+0  88494-3 0  9995", "line2": "2 34588  74.0442 276.4705 0019083 329.6159 151.7292 14.42000423878862"}}, "geometry": {"type": "Point", "coordinates": [102.78251537303153, -23.402519988365704]}}, {"type": "Feature", "properties": {"norad_id": 34589, "name": "COSMOS 2251 DEB", "group": "cosmos-2251-debris", "lat": 42.24046426748078, "lon": -132.32796445442563, "alt_km": 1050.611449589228, "timestamp": "2025-12-08T17:43:05.332555+00:00", "meta": {"OBJECT_NAME": "COSMOS 2251 DEB", "OBJECT_ID": "1993-036WB", "EPOCH": "2025-12-08T06:57:07.176960", "MEAN_MOTION": 13.86047375, "ECCENTRICITY": 0.02517547, "INCLINATION": 73.9253, "RA_OF_ASC_NODE": 63.614, "ARG_OF_PERICENTER": 7.8505, "MEAN_ANOMALY": 47.8863, "EPHEMERIS_TYPE": 0, "CLASSIFICATION_TYPE": "U", "NORAD_CAT_ID": 34589, "ELEMENT_SET_NO": 999, "REV_AT_EPOCH": 84650, "BSTAR": 0.00039289139, "MEAN_MOTION_DOT": 5.56e-06, "MEAN_MOTION_DDOT": 0}, "tle": {"line1": "1 34589U 93036WB  25342.28966640  .00000556  00000+0  39289-3 0  9996", "line2": "2 34589  73.9253  63.6140 0251754   7.8505  47.8863 13.86047375846502"}}, "geometry": {"type": "Point", "coordinates": [-132.32796445442563, 42.24046426748078]}}, {"type": "Feature", "properties": {"norad_id": 34590, "name": "COSMOS 2251 DEB", "group": "cosmos-2251-debris", "lat": -27.71944615712727, "lon": 158.76743970250422, "alt_km": 729.9210770737473, "timestamp": "2025-12-08T17:43:05.332566+00:00", "meta": {"OBJECT_NAME": "COSMOS 2251 DEB", "OBJECT_ID": "1993-036WC", "EPOCH": "2025-12-08T00:33:03.526272", "MEAN_MOTION": 14.54817006, "ECCENTRICITY": 0.00679765, "INCLINATION": 74.0435, "RA_OF_ASC_NODE": 331.4736, "ARG_OF_PERICENTER": 102.451, "MEAN_ANOMALY": 320.9034, "EPHEMERIS_TYPE": 0, "CLASSIFICATION_TYPE": "U", "NORAD_CAT_ID": 34590, "ELEMENT_SET_NO": 999, "REV_AT_EPOCH": 89052, "BSTAR": 0.00019858515, "MEAN_MOTION_DOT": 8.49e-06, "MEAN_MOTION_DDOT": 0}, "tle": {"line1": "1 34590U 93036WC  25342.02295748  .00000849  00000+0  19859-3 0  9990", "line2": "2 34590  74.0435 331.4736 0067976 102.4510 320.9034 14.54817006890522"}}, "geometry": {"type": "Point", "coordinates": [158.76743970250422, -27.71944615712727]}}]}